BEESAT-4                
1 41619U 16040W   22325.07189531  .00017427  00000+0  49244-3 0  9996
2 41619  97.1970  11.8136 0006395 274.9838  85.0676 15.36386882344722
CAS-2T & KS-1Q          
1 41847U 16066G   22325.17072874  .00000838  00000+0  13347-3 0  9992
2 41847  98.5333  29.5526 0363716 100.9246 263.3081 14.38913105316888
NAYIF-1 (EO-88)         
1 42017U 17008BX  22325.44475707  .00025595  00000+0  62031-3 0  9992
2 42017  97.2510  29.6915 0004964  54.9419 305.2293 15.41046136321198
ZHUHAI-1 02 (CAS-4B)    
1 42759U 17034B   22325.61090410  .00004020  00000+0  23412-3 0  9997
2 42759  43.0167 185.7055 0010182 211.6380 176.3166 15.13293715300150
ZHUHAI-1 01 (CAS-4A)    
1 42761U 17034D   22325.63873558  .00004100  00000+0  23795-3 0  9997
2 42761  43.0169 184.2272 0010469 213.9576 179.8863 15.13383938300160
MAX VALIER SAT          
1 42778U 17036P   22325.33926155  .00011034  00000+0  38161-3 0  9993
2 42778  97.1874   1.1567 0011631 122.3892 237.8476 15.29995688300861
RADFXSAT (FOX-1B)       
1 43017U 17073E   22325.22205235  .00005133  00000+0  37866-3 0  9992
2 43017  97.6546 212.9355 0245539  34.2505 327.4272 14.82635936270337
FOX-1D (AO-92)          
1 43137U 18004AC  22325.16656799  .00013808  00000+0  43448-3 0  9999
2 43137  97.3554  39.1164 0007742 155.7232 204.4377 15.33034104270327
DIWATA-2B               
1 43678U 18084H   22325.55170865  .00001456  00000+0  14750-3 0  9995
2 43678  97.9922 100.9037 0010995 123.2198 237.0082 14.92500699221280
ES'HAIL 2               
1 43700U 18090A   22325.48815227  .00000167  00000+0  00000+0 0  9995
2 43700   0.0191 304.1875 0001023 316.0260   1.7713  1.00269841 14600
FOX-1CLIFF (AO-95)      
1 43770U 18099N   22325.15537855  .00001753  00000+0  15572-3 0  9999
2 43770  97.6042  27.3596 0015072 108.0229 252.2637 14.97305514216454
ITASAT 1                
1 43786U 18099AE  22325.47265627  .00002936  00000+0  25715-3 0  9990
2 43786  97.6076  28.6634 0016469 100.5094 259.7985 14.97341143216549
JY1SAT (JO-97)          
1 43803U 18099AX  22325.16278340  .00002167  00000+0  18785-3 0  9997
2 43803  97.6028  28.1787 0015299 100.1910 260.1039 14.98027067216524
UWE-4                   
1 43880U 18111E   22325.24721121  .00002643  00000+0  22164-3 0  9991
2 43880  97.6578 228.7977 0011184 145.9859 214.2083 14.99189609213186
NEXUS (FO-99)           
1 43937U 19003F   22325.52433122  .00015793  00000+0  46159-3 0  9997
2 43937  97.1151 353.0424 0016808 315.8930  44.0973 15.35224526214037
PSAT2 (NO-104)          
1 44354U 19036R   22324.90555722  .00092865 -44549-5  49127-3 0  9995
2 44354  28.5191 157.8728 0152436 321.1718  37.8020 15.64013322188969
JAISAT-1                
1 44419U 19038F   22325.46340097  .00009977  00000+0  46007-3 0  9991
2 44419  97.6545 297.2986 0016283 314.6941  45.2966 15.20346620186883
DUCHIFAT-3              
1 44854U 19089C   22325.53543273  .00004615  00000+0  34778-3 0  9995
2 44854  36.9639 248.3512 0006772  45.9322 128.5526 15.02372862161558
CAS-6 (TIANQIN 1)       
1 44881U 19093C   22325.57652064  .00000586  00000+0  80524-4 0  9997
2 44881  97.8818  42.4509 0015893  39.0064 321.2294 14.81937930158046
RS-44 & BREEZE-KM R/B   
1 44909U 19096E   22325.49307976  .00000011  00000+0  60575-5 0  9999
2 44909  82.5180 125.9602 0216633 312.7332  45.5710 12.79716704135598
ORBITAL FACTORY 2 (OF-2)
1 45113U 19071C   22325.37885929  .00051905  00000+0  70900-3 0  9995
2 45113  51.6354   2.0769 0011482  28.1852 331.9759 15.56868204157719
HUSKYSAT-1 (HO-107)     
1 45119U 19071J   22325.41062236  .00040056  00000+0  60520-3 0  9996
2 45119  51.6362   3.7540 0011107  25.3410 334.8123 15.54248610157686
BY70-2                  
1 45857U 20042B   22325.60340361  .00007430  00000+0  93865-3 0  9991
2 45857  97.9450  41.0745 0009031 330.3293  29.7382 14.82146306128717
SALSAT                  
1 46495U 20068K   22325.42061278  .00002064  00000+0  14816-3 0  9992
2 46495  97.7457 266.9549 0018113 103.5421 256.7825 15.05330697117799
BY70-3                  
1 46839U 20079N   22325.50578273  .00039156  00000+0  66308-3 0  9998
2 46839  97.1817  36.2113 0005536 121.9886 353.0658 15.51434451114509
RADFXSAT-2 (AO-109)     
1 47311U 21002C   22325.46757657  .00011959  00000+0  42953-3 0  9992
2 47311  60.6824 130.0264 0038032  72.6983 287.8262 15.28421899102435
UVSQ-SAT                
1 47438U 21006AB  22325.37938364  .00007698  00000+0  38309-3 0  9997
2 47438  97.4185  21.1867 0012904  90.5509 269.7203 15.17809982101068
DIY-1 (ARDUIQUBE)       
1 47963U 21022AH  22325.18063841  .00025688  00000+0  11960-2 0  9998
2 47963  97.5180 225.1393 0013286 323.2587  36.7736 15.19825424 90693
XW-3 (CAS-9)            
1 50466U 21131B   22325.50668816  .00000210  00000+0  83088-4 0  9996
2 50466  98.5703  42.6007 0005111  52.8331 307.3322 14.38579563 47499
TEVEL-3                 
1 50988U 22002E   22325.45661458  .00008174  00000+0  41782-3 0  9993
2 50988  97.4649  29.8886 0007968 234.1472 247.0164 15.16898349 47194
TEVEL-8                 
1 50989U 22002F   22325.46814241  .00008009  00000+0  41012-3 0  9998
2 50989  97.4660  29.9347 0008054 232.9120 253.1974 15.16841613 47193
TEVEL-5                 
1 50998U 22002Q   22325.49291014  .00008271  00000+0  41609-3 0  9991
2 50998  97.4637  30.1176 0009707 228.8740 259.6256 15.17439323 47218
TEVEL-6                 
1 50999U 22002R   22325.48994962  .00008315  00000+0  41823-3 0  9990
2 50999  97.4638  30.1110 0009687 227.8186 249.1876 15.17445401 47214
TEVEL-1                 
1 51013U 22002AF  22325.46151709  .00008114  00000+0  41510-3 0  9990
2 51013  97.4635  29.8611 0007875 234.3756 246.4604 15.16868235 47192
TEVEL-7                 
1 51062U 22002CG  22325.47026493  .00008045  00000+0  41198-3 0  9991
2 51062  97.4663  29.9196 0007990 232.7629 253.8194 15.16839506 47190
TEVEL-4                 
1 51063U 22002CH  22325.47170944  .00007958  00000+0  40774-3 0  9994
2 51063  97.4652  29.9143 0008049 232.1411 253.7061 15.16822540 47192
TEVEL-2                 
1 51069U 22002CP  22325.45839537  .00008157  00000+0  41698-3 0  9996
2 51069  97.4637  29.8707 0007937 234.0945 247.4639 15.16893261 47193
GREENCUBE               
1 53106U 22080B   22323.09002148 -.00000003  00000+0  00000+0 0  9995
2 53106  70.1752  32.7128 0008932 231.1104 128.8759  6.42557452  8251
YUZGU 9 (RS3S)          
1 53308U 98067TT  22325.34754995  .00112510  00000+0  10617-2 0  9995
2 53308  51.6366 272.5097 0008578 105.7053 254.4889 15.66142314 19170
YUZGU 7 (RS1S)          
1 53309U 98067TU  22325.39496354  .00116544  00000+0  10750-2 0  9992
2 53309  51.6362 272.0709 0008909 109.7981 250.3976 15.66688012 19132
YUZGU 11 (RS5S)         
1 53310U 98067TV  22325.34634650  .00110867  00000+0  10459-2 0  9990
2 53310  51.6363 272.5010 0008675 108.6912 251.5026 15.66155060 19150
YUZGU 12 (RS6S)         
1 53311U 98067TW  22325.44160421  .00121517  00000+0  10949-2 0  9990
2 53311  51.6362 271.6314 0008674 104.7831 255.4127 15.67250589 19195
TSIOLKOVSKY-RYAZAN 1 (*)
1 53312U 98067TX  22325.39517853  .00108922  00000+0  10180-2 0  9992
2 53312  51.6366 272.0782 0008948 110.4776 249.7181 15.66392373 19126
TSIOLKOVSKY-RYAZAN 2 (*)
1 53313U 98067TY  22325.39221338  .00114104  00000+0  10569-2 0  9993
2 53313  51.6372 272.0591 0008513 110.9110 249.2797 15.66598571 19178
YUZGU 10 (RS4S)         
1 53321U 98067TZ  22325.34055775  .00113394  00000+0  10579-2 0  9998
2 53321  51.6363 272.4625 0008743 107.5151 252.6801 15.66420776 19165
RS29S (SXC3-2110 CYCLO*)
1 53373U 22096D   22325.48979406  .00011349  00000+0  43120-3 0  9991
2 53373  97.4273 226.2655 0002461 108.2453 356.6706 15.26966895 15881
RS32S (SXC3-212 MONITO*)
1 53374U 22096E   22325.48284464  .00010807  00000+0  40977-3 0  9990
2 53374  97.4269 226.2719 0002792 106.7979   0.2054 15.27047613 15888
RS34S (SXC3-218 KUZBAS*)
1 53375U 22096F   22325.49270729  .00009293  00000+0  35677-3 0  9999
2 53375  97.4271 226.2618 0002718 111.3142 359.2907 15.26675984 15883
RS23S (SXC3-21 UTMN)    
1 53376U 22096G   22325.48952552  .00009643  00000+0  36936-3 0  9998
2 53376  97.4275 226.2658 0002954 110.7240 356.3439 15.26740973 15885
RS28S (SXC3-214 MIET-A*)
1 53377U 22096H   22325.48844378  .00008782  00000+0  33717-3 0  9992
2 53377  97.4280 226.2685 0002888 108.8417 358.0535 15.26694713 15888
RS26S (KAI-1)           
1 53378U 22096J   22325.49429692  .00008042  00000+0  31063-3 0  9993
2 53378  97.4274 226.2642 0002964 105.3347  14.0085 15.26520653 15884
RS19S (SXC3-219 ISOI)   
1 53381U 22096M   22325.52606657  .00009094  00000+0  34357-3 0  9996
2 53381  97.4275 226.3767 0006283  80.5691  45.9008 15.27203748 15895
RS21S (CUBESX-HSE-2)    
1 53383U 22096P   22325.58760714  .00009381  00000+0  35384-3 0  9999
2 53383  97.4278 226.4464 0006538  81.1544  38.6729 15.27246994 15903
RS30S (SXC3-217 SIREN)  
1 53384U 22096Q   22325.58326323  .00008195  00000+0  31080-3 0  9995
2 53384  97.4279 226.4355 0006514  80.2593   5.2745 15.27108353 15906
RS20S (GEOSCAN-EDELVEIS)
1 53385U 22096R   22325.62134192  .00011806  00000+0  43536-3 0  9994
2 53385  97.4276 226.5365 0007009  77.5935   8.1489 15.27927792 15942
RS33S (SXC3-215 VIZARD) 
1 53386U 22096S   22325.46592388  .00013911  00000+0  50095-3 0  9999
2 53386  97.4268 226.4475 0007786  80.1706  30.0081 15.28662333 15910
